STARLINK-31960          
1 59931U 24106K   25300.22335965 -.00001858  00000+0 -58037-4 0  9995
2 59931  43.0042   6.0323 0001407 280.4836  79.5857 15.27572269 80116
STARLINK-31432          
1 59932U 24106L   25300.19523367 -.00232126  00000+0 -87342-2 0  9990
2 59932  43.0034   6.6902 0001564 297.2274  62.8418 15.27424196 80105
STARLINK-31853          
1 59933U 24106M   25300.24262811  .00002160  00000+0  88001-4 0  9997
2 59933  43.0052   6.1753 0001182 265.9044  94.1672 15.27572117 80116
STARLINK-31971          
1 59934U 24106N   25300.20725194 -.00001096  00000+0 -30325-4 0  9997
2 59934  43.0011   3.1646 0000597 265.3046  94.7737 15.27578715 80023
STARLINK-31962          
1 59936U 24106Q   25300.19908242 -.00003882  00000+0 -13164-3 0  9990
2 59936  43.0001   6.7058 0001462 238.4661 121.6048 15.27574269 80100
STARLINK-31879          
1 59937U 24106R   25300.20936483  .00003690  00000+0  14355-3 0  9999
2 59937  42.9965   6.7792 0000219 208.2485 151.8355 15.27578068 80153
STARLINK-31876          
1 59938U 24106S   25300.23491854  .00000462  00000+0  26299-4 0  9996
2 59938  43.0013   6.1150 0001154 267.4693  92.6027 15.27570269 80129
STARLINK-31955          
1 59939U 24106T   25300.16181883 -.00002120  00000+0 -67552-4 0  9999
2 59939  43.0045   6.4290 0001109 281.1479  78.9248 15.27569935 80140
STARLINK-31946          
1 59940U 24106U   25300.27089819 -.00002592  00000+0 -84716-4 0  9993
2 59940  43.0012   6.3845 0000311 250.7131 109.3687 15.27579877 70749
STARLINK-31948          
1 59941U 24106V   25300.19955194  .00003941  00000+0  15266-3 0  9993
2 59941  43.0010   3.1506 0000350 245.6677 114.4139 15.27580663 80147
STARLINK-31900          
1 59942U 24106W   25300.21693592 -.00002382  00000+0 -77076-4 0  9996
2 59942  43.0034   5.9834 0001073 280.0605  80.0126 15.27572011 80114
STARLINK-31973          
1 59943U 24106X   25300.19137286  .00003447  00000+0  13475-3 0  9990
2 59943  43.0022   6.6553 0000578 195.0928 164.9906 15.27571462 80106
STARLINK-31966          
1 59944U 24106Y   25300.25290502 -.00000316  00000+0 -19628-5 0  9991
2 59944  43.0039   6.2508 0000865 243.2845 116.7918 15.27588792 80162
STARLINK-11145 [DTC]    
1 59945U 24107A   25299.99631070  .00002807  00000+0  28005-4 0  9993
2 59945  53.1599 190.6376 0001054  75.0280 285.0855 15.69719171 81144
STARLINK-11113 [DTC]    
1 59947U 24107C   25300.00112347  .00000278  00000+0  71472-5 0  9998
2 59947  53.1587 189.9245 0000983  78.8868 281.2260 15.69713839 81156
STARLINK-11123 [DTC]    
1 59948U 24107D   25299.98650378  .00001950  00000+0  20942-4 0  9997
2 59948  53.1600 190.5715 0001226  83.9104 276.2053 15.69717223 81205
