[{"OBJECT_NAME":"STARLINK-31960","OBJECT_ID":"2024-106K","EPOCH":"2025-10-27T05:21:38.273760","MEAN_MOTION":15.27572269,"ECCENTRICITY":0.00014075,"INCLINATION":43.0042,"RA_OF_ASC_NODE":6.0323,"ARG_OF_PERICENTER":280.4836,"MEAN_ANOMALY":79.5857,"EPHEMERIS_TYPE":0,"CLASSIFICATION_TYPE":"U","NORAD_CAT_ID":59931,"ELEMENT_SET_NO":999,"REV_AT_EPOCH":8011,"BSTAR":-5.8036758e-5,"MEAN_MOTION_DOT":-1.858e-5,"MEAN_MOTION_DDOT":0},{"OBJECT_NAME":"STARLINK-31432","OBJECT_ID":"2024-106L","EPOCH":"2025-10-27T04:41:08.189088","MEAN_MOTION":15.27424196,"ECCENTRICITY":0.00015643,"INCLINATION":43.0034,"RA_OF_ASC_NODE":6.6902,"ARG_OF_PERICENTER":297.2274,"MEAN_ANOMALY":62.8418,"EPHEMERIS_TYPE":0,"CLASSIFICATION_TYPE":"U","NORAD_CAT_ID":59932,"ELEMENT_SET_NO":999,"REV_AT_EPOCH":8010,"BSTAR":-0.0087342,"MEAN_MOTION_DOT":-0.00232126,"MEAN_MOTION_DDOT":0},{"OBJECT_NAME":"STARLINK-31853","OBJECT_ID":"2024-106M","EPOCH":"2025-10-27T05:49:23.068704","MEAN_MOTION":15.27572117,"ECCENTRICITY":0.00011823,"INCLINATION":43.0052,"RA_OF_ASC_NODE":6.1753,"ARG_OF_PERICENTER":265.9044,"MEAN_ANOMALY":94.1672,"EPHEMERIS_TYPE":0,"CLASSIFICATION_TYPE":"U","NORAD_CAT_ID":59933,"ELEMENT_SET_NO":999,"REV_AT_EPOCH":8011,"BSTAR":8.8001077e-5,"MEAN_MOTION_DOT":2.16e-5,"MEAN_MOTION_DDOT":0},{"OBJECT_NAME":"STARLINK-31971","OBJECT_ID":"2024-106N","EPOCH":"2025-10-27T04:58:26.567616","MEAN_MOTION":15.27578715,"ECCENTRICITY":5.971e-5,"INCLINATION":43.0011,"RA_OF_ASC_NODE":3.1646,"ARG_OF_PERICENTER":265.3046,"MEAN_ANOMALY":94.7737,"EPHEMERIS_TYPE":0,"CLASSIFICATION_TYPE":"U","NORAD_CAT_ID":59934,"ELEMENT_SET_NO":999,"REV_AT_EPOCH":8002,"BSTAR":-3.0325092e-5,"MEAN_MOTION_DOT":-1.096e-5,"MEAN_MOTION_DDOT":0},{"OBJECT_NAME":"STARLINK-31962","OBJECT_ID":"2024-106Q","EPOCH":"2025-10-27T04:46:40.721088","MEAN_MOTION":15.27574269,"ECCENTRICITY":0.00014628,"INCLINATION":43.0001,"RA_OF_ASC_NODE":6.7058,"ARG_OF_PERICENTER":238.4661,"MEAN_ANOMALY":121.6048,"EPHEMERIS_TYPE":0,"CLASSIFICATION_TYPE":"U","NORAD_CAT_ID":59936,"ELEMENT_SET_NO":999,"REV_AT_EPOCH":8010,"BSTAR":-0.0001316405,"MEAN_MOTION_DOT":-3.882e-5,"MEAN_MOTION_DDOT":0},{"OBJECT_NAME":"STARLINK-31879","OBJECT_ID":"2024-106R","EPOCH":"2025-10-27T05:01:29.121312","MEAN_MOTION":15.27578068,"ECCENTRICITY":2.196e-5,"INCLINATION":42.9965,"RA_OF_ASC_NODE":6.7792,"ARG_OF_PERICENTER":208.2485,"MEAN_ANOMALY":151.8355,"EPHEMERIS_TYPE":0,"CLASSIFICATION_TYPE":"U","NORAD_CAT_ID":59937,"ELEMENT_SET_NO":999,"REV_AT_EPOCH":8015,"BSTAR":0.00014354804,"MEAN_MOTION_DOT":3.69e-5,"MEAN_MOTION_DDOT":0},{"OBJECT_NAME":"STARLINK-31876","OBJECT_ID":"2024-106S","EPOCH":"2025-10-27T05:38:16.961856","MEAN_MOTION":15.27570269,"ECCENTRICITY":0.00011546,"INCLINATION":43.0013,"RA_OF_ASC_NODE":6.115,"ARG_OF_PERICENTER":267.4693,"MEAN_ANOMALY":92.6027,"EPHEMERIS_TYPE":0,"CLASSIFICATION_TYPE":"U","NORAD_CAT_ID":59938,"ELEMENT_SET_NO":999,"REV_AT_EPOCH":8012,"BSTAR":2.6298727e-5,"MEAN_MOTION_DOT":4.62e-6,"MEAN_MOTION_DDOT":0},{"OBJECT_NAME":"STARLINK-31955","OBJECT_ID":"2024-106T","EPOCH":"2025-10-27T03:53:01.146912","MEAN_MOTION":15.27569935,"ECCENTRICITY":0.00011097,"INCLINATION":43.0045,"RA_OF_ASC_NODE":6.429,"ARG_OF_PERICENTER":281.1479,"MEAN_ANOMALY":78.9248,"EPHEMERIS_TYPE":0,"CLASSIFICATION_TYPE":"U","NORAD_CAT_ID":59939,"ELEMENT_SET_NO":999,"REV_AT_EPOCH":8014,"BSTAR":-6.7552452e-5,"MEAN_MOTION_DOT":-2.12e-5,"MEAN_MOTION_DDOT":0},{"OBJECT_NAME":"STARLINK-31946","OBJECT_ID":"2024-106U","EPOCH":"2025-10-27T06:30:05.603616","MEAN_MOTION":15.27579877,"ECCENTRICITY":3.112e-5,"INCLINATION":43.0012,"RA_OF_ASC_NODE":6.3845,"ARG_OF_PERICENTER":250.7131,"MEAN_ANOMALY":109.3687,"EPHEMERIS_TYPE":0,"CLASSIFICATION_TYPE":"U","NORAD_CAT_ID":59940,"ELEMENT_SET_NO":999,"REV_AT_EPOCH":7074,"BSTAR":-8.4716273e-5,"MEAN_MOTION_DOT":-2.592e-5,"MEAN_MOTION_DDOT":0},{"OBJECT_NAME":"STARLINK-31948","OBJECT_ID":"2024-106V","EPOCH":"2025-10-27T04:47:21.287616","MEAN_MOTION":15.27580663,"ECCENTRICITY":3.5e-5,"INCLINATION":43.001,"RA_OF_ASC_NODE":3.1506,"ARG_OF_PERICENTER":245.6677,"MEAN_ANOMALY":114.4139,"EPHEMERIS_TYPE":0,"CLASSIFICATION_TYPE":"U","NORAD_CAT_ID":59941,"ELEMENT_SET_NO":999,"REV_AT_EPOCH":8014,"BSTAR":0.00015266188,"MEAN_MOTION_DOT":3.941e-5,"MEAN_MOTION_DDOT":0},{"OBJECT_NAME":"STARLINK-31900","OBJECT_ID":"2024-106W","EPOCH":"2025-10-27T05:12:23.263488","MEAN_MOTION":15.27572011,"ECCENTRICITY":0.00010736,"INCLINATION":43.0034,"RA_OF_ASC_NODE":5.9834,"ARG_OF_PERICENTER":280.0605,"MEAN_ANOMALY":80.0126,"EPHEMERIS_TYPE":0,"CLASSIFICATION_TYPE":"U","NORAD_CAT_ID":59942,"ELEMENT_SET_NO":999,"REV_AT_EPOCH":8011,"BSTAR":-7.7076064e-5,"MEAN_MOTION_DOT":-2.382e-5,"MEAN_MOTION_DDOT":0},{"OBJECT_NAME":"STARLINK-31973","OBJECT_ID":"2024-106X","EPOCH":"2025-10-27T04:35:34.615104","MEAN_MOTION":15.27571462,"ECCENTRICITY":5.78e-5,"INCLINATION":43.0022,"RA_OF_ASC_NODE":6.6553,"ARG_OF_PERICENTER":195.0928,"MEAN_ANOMALY":164.9906,"EPHEMERIS_TYPE":0,"CLASSIFICATION_TYPE":"U","NORAD_CAT_ID":59943,"ELEMENT_SET_NO":999,"REV_AT_EPOCH":8010,"BSTAR":0.00013475004,"MEAN_MOTION_DOT":3.447e-5,"MEAN_MOTION_DDOT":0},{"OBJECT_NAME":"STARLINK-31966","OBJECT_ID":"2024-106Y","EPOCH":"2025-10-27T06:04:10.993728","MEAN_MOTION":15.27588792,"ECCENTRICITY":8.655e-5,"INCLINATION":43.0039,"RA_OF_ASC_NODE":6.2508,"ARG_OF_PERICENTER":243.2845,"MEAN_ANOMALY":116.7918,"EPHEMERIS_TYPE":0,"CLASSIFICATION_TYPE":"U","NORAD_CAT_ID":59944,"ELEMENT_SET_NO":999,"REV_AT_EPOCH":8016,"BSTAR":-1.96281e-6,"MEAN_MOTION_DOT":-3.16e-6,"MEAN_MOTION_DDOT":0},{"OBJECT_NAME":"STARLINK-11145 [DTC]","OBJECT_ID":"2024-107A","EPOCH":"2025-10-26T23:54:41.244480","MEAN_MOTION":15.69719171,"ECCENTRICITY":0.00010548,"INCLINATION":53.1599,"RA_OF_ASC_NODE":190.6376,"ARG_OF_PERICENTER":75.028,"MEAN_ANOMALY":285.0855,"EPHEMERIS_TYPE":0,"CLASSIFICATION_TYPE":"U","NORAD_CAT_ID":59945,"ELEMENT_SET_NO":999,"REV_AT_EPOCH":8114,"BSTAR":2.8005338e-5,"MEAN_MOTION_DOT":2.807e-5,"MEAN_MOTION_DDOT":0},{"OBJECT_NAME":"STARLINK-11113 [DTC]","OBJECT_ID":"2024-107C","EPOCH":"2025-10-27T00:01:37.067808","MEAN_MOTION":15.69713839,"ECCENTRICITY":9.835e-5,"INCLINATION":53.1587,"RA_OF_ASC_NODE":189.9245,"ARG_OF_PERICENTER":78.8868,"MEAN_ANOMALY":281.226,"EPHEMERIS_TYPE":0,"CLASSIFICATION_TYPE":"U","NORAD_CAT_ID":59947,"ELEMENT_SET_NO":999,"REV_AT_EPOCH":8115,"BSTAR":7.147204e-6,"MEAN_MOTION_DOT":2.78e-6,"MEAN_MOTION_DDOT":0},{"OBJECT_NAME":"STARLINK-11123 [DTC]","OBJECT_ID":"2024-107D","EPOCH":"2025-10-26T23:40:33.926592","MEAN_MOTION":15.69717223,"ECCENTRICITY":0.0001226,"INCLINATION":53.16,"RA_OF_ASC_NODE":190.5715,"ARG_OF_PERICENTER":83.9104,"MEAN_ANOMALY":276.2053,"EPHEMERIS_TYPE":0,"CLASSIFICATION_TYPE":"U","NORAD_CAT_ID":59948,"ELEMENT_SET_NO":999,"REV_AT_EPOCH":8120,"BSTAR":2.0942e-5,"MEAN_MOTION_DOT":1.95e-5,"MEAN_MOTION_DDOT":0}]
